STARLINK-35689          
1 66494U 25263K   25330.91673611 -.01379440  00000+0 -55486-2 0  9993
2 66494  42.9974 219.7918 0001741 263.8782  22.1176 15.88187812  3092
STARLINK-35832          
1 66495U 25263L   25330.91673611 -.01406544  00000+0 -56738-2 0  9991
2 66495  42.9973 219.7636 0001839 265.4083  31.6775 15.88186536  3091
STARLINK-35909          
1 66496U 25263M   25330.91673611 -.01418999  00000+0 -57333-2 0  9991
2 66496  42.9976 219.7562 0001719 263.5257  36.5831 15.88182380  3092
STARLINK-35899          
1 66497U 25263N   25330.91673611 -.01422470  00000+0 -57476-2 0  9999
2 66497  42.9973 219.7491 0001785 264.6623  38.1090 15.88187960  3097
STARLINK-35907          
1 66498U 25263P   25330.91673611 -.01434347  00000+0 -58024-2 0  9996
2 66498  42.9974 219.7423 0001808 265.2081  40.3175 15.88189399  3092
STARLINK-35816          
1 66499U 25263Q   25330.91673611 -.01450501  00000+0 -58713-2 0  9992
2 66499  42.9974 219.7296 0001802 265.8012  44.7323 15.88211961  3099
STARLINK-35894          
1 66500U 25263R   25330.91673611 -.01431672  00000+0 -57876-2 0  9992
2 66500  42.9975 219.7366 0001801 267.2457  40.6156 15.88197586  3094
STARLINK-35897          
1 66501U 25263S   25330.91673611 -.01448750  00000+0 -58644-2 0  9992
2 66501  42.9976 219.7229 0001806 269.0802  44.1796 15.88207302  3090
STARLINK-35922          
1 66502U 25263T   25330.91673611 -.01482454  00000+0 -60177-2 0  9996
2 66502  42.9978 219.7014 0001848 267.6344  54.1719 15.88223530  3093
STARLINK-35917          
1 66503U 25263U   25330.91673611 -.01517570  00000+0 -60379-2 0  9999
2 66503  42.9975 219.6859 0001845 268.4723  59.2795 15.88218652  3093
STARLINK-35916          
1 66504U 25263V   25330.91673611 -.02364603  00000+0 -10567-1 0  9991
2 66504  42.9978 219.6898 0001583 260.2106  65.9391 15.86245329  3099
STARLINK-34766          
1 66505U 25263W   25330.91673611 -.01464572  00000+0 -59407-2 0  9994
2 66505  42.9976 219.7145 0001674 264.4715  52.0922 15.88202249  3090
