CCSDS_OMM_VERS = 2.0
CREATION_DATE  = 
ORIGINATOR     = 

OBJECT_NAME    = STARLINK-35689
OBJECT_ID      = 2025-263K
CENTER_NAME    = EARTH
REF_FRAME      = TEME
TIME_SYSTEM    = UTC
MEAN_ELEMENT_THEORY = SGP/SGP4

EPOCH          = 2025-11-26T22:00:05.999904
MEAN_MOTION    = 15.88187812
ECCENTRICITY   = .00017419
INCLINATION    = 42.9974
RA_OF_ASC_NODE = 219.7918
ARG_OF_PERICENTER = 263.8782
MEAN_ANOMALY   = 22.1176

EPHEMERIS_TYPE = 0
CLASSIFICATION_TYPE = U
NORAD_CAT_ID   = 66494
ELEMENT_SET_NO = 999
REV_AT_EPOCH   = 309
BSTAR          = -.55485614E-2
MEAN_MOTION_DOT = -.137944E-1
MEAN_MOTION_DDOT = 0

CCSDS_OMM_VERS = 2.0
CREATION_DATE  = 
ORIGINATOR     = 

OBJECT_NAME    = STARLINK-35832
OBJECT_ID      = 2025-263L
CENTER_NAME    = EARTH
REF_FRAME      = TEME
TIME_SYSTEM    = UTC
MEAN_ELEMENT_THEORY = SGP/SGP4

EPOCH          = 2025-11-26T22:00:05.999904
MEAN_MOTION    = 15.88186536
ECCENTRICITY   = .00018396
INCLINATION    = 42.9973
RA_OF_ASC_NODE = 219.7636
ARG_OF_PERICENTER = 265.4083
MEAN_ANOMALY   = 31.6775

EPHEMERIS_TYPE = 0
CLASSIFICATION_TYPE = U
NORAD_CAT_ID   = 66495
ELEMENT_SET_NO = 999
REV_AT_EPOCH   = 309
BSTAR          = -.56737958E-2
MEAN_MOTION_DOT = -.1406544E-1
MEAN_MOTION_DDOT = 0

CCSDS_OMM_VERS = 2.0
CREATION_DATE  = 
ORIGINATOR     = 

OBJECT_NAME    = STARLINK-35909
OBJECT_ID      = 2025-263M
CENTER_NAME    = EARTH
REF_FRAME      = TEME
TIME_SYSTEM    = UTC
MEAN_ELEMENT_THEORY = SGP/SGP4

EPOCH          = 2025-11-26T22:00:05.999904
MEAN_MOTION    = 15.88182380
ECCENTRICITY   = .00017195
INCLINATION    = 42.9976
RA_OF_ASC_NODE = 219.7562
ARG_OF_PERICENTER = 263.5257
MEAN_ANOMALY   = 36.5831

EPHEMERIS_TYPE = 0
CLASSIFICATION_TYPE = U
NORAD_CAT_ID   = 66496
ELEMENT_SET_NO = 999
REV_AT_EPOCH   = 309
BSTAR          = -.57333071E-2
MEAN_MOTION_DOT = -.1418999E-1
MEAN_MOTION_DDOT = 0

CCSDS_OMM_VERS = 2.0
CREATION_DATE  = 
ORIGINATOR     = 

OBJECT_NAME    = STARLINK-35899
OBJECT_ID      = 2025-263N
CENTER_NAME    = EARTH
REF_FRAME      = TEME
TIME_SYSTEM    = UTC
MEAN_ELEMENT_THEORY = SGP/SGP4

EPOCH          = 2025-11-26T22:00:05.999904
MEAN_MOTION    = 15.88187960
ECCENTRICITY   = .00017853
INCLINATION    = 42.9973
RA_OF_ASC_NODE = 219.7491
ARG_OF_PERICENTER = 264.6623
MEAN_ANOMALY   = 38.1090

EPHEMERIS_TYPE = 0
CLASSIFICATION_TYPE = U
NORAD_CAT_ID   = 66497
ELEMENT_SET_NO = 999
REV_AT_EPOCH   = 309
BSTAR          = -.57475685E-2
MEAN_MOTION_DOT = -.142247E-1
MEAN_MOTION_DDOT = 0

CCSDS_OMM_VERS = 2.0
CREATION_DATE  = 
ORIGINATOR     = 

OBJECT_NAME    = STARLINK-35907
OBJECT_ID      = 2025-263P
CENTER_NAME    = EARTH
REF_FRAME      = TEME
TIME_SYSTEM    = UTC
MEAN_ELEMENT_THEORY = SGP/SGP4

EPOCH          = 2025-11-26T22:00:05.999904
MEAN_MOTION    = 15.88189399
ECCENTRICITY   = .00018088
INCLINATION    = 42.9974
RA_OF_ASC_NODE = 219.7423
ARG_OF_PERICENTER = 265.2081
MEAN_ANOMALY   = 40.3175

EPHEMERIS_TYPE = 0
CLASSIFICATION_TYPE = U
NORAD_CAT_ID   = 66498
ELEMENT_SET_NO = 999
REV_AT_EPOCH   = 309
BSTAR          = -.58024034E-2
MEAN_MOTION_DOT = -.1434347E-1
MEAN_MOTION_DDOT = 0

CCSDS_OMM_VERS = 2.0
CREATION_DATE  = 
ORIGINATOR     = 

OBJECT_NAME    = STARLINK-35816
OBJECT_ID      = 2025-263Q
CENTER_NAME    = EARTH
REF_FRAME      = TEME
TIME_SYSTEM    = UTC
MEAN_ELEMENT_THEORY = SGP/SGP4

EPOCH          = 2025-11-26T22:00:05.999904
MEAN_MOTION    = 15.88211961
ECCENTRICITY   = .00018026
INCLINATION    = 42.9974
RA_OF_ASC_NODE = 219.7296
ARG_OF_PERICENTER = 265.8012
MEAN_ANOMALY   = 44.7323

EPHEMERIS_TYPE = 0
CLASSIFICATION_TYPE = U
NORAD_CAT_ID   = 66499
ELEMENT_SET_NO = 999
REV_AT_EPOCH   = 309
BSTAR          = -.58712525E-2
MEAN_MOTION_DOT = -.1450501E-1
MEAN_MOTION_DDOT = 0

CCSDS_OMM_VERS = 2.0
CREATION_DATE  = 
ORIGINATOR     = 

OBJECT_NAME    = STARLINK-35894
OBJECT_ID      = 2025-263R
CENTER_NAME    = EARTH
REF_FRAME      = TEME
TIME_SYSTEM    = UTC
MEAN_ELEMENT_THEORY = SGP/SGP4

EPOCH          = 2025-11-26T22:00:05.999904
MEAN_MOTION    = 15.88197586
ECCENTRICITY   = .00018011
INCLINATION    = 42.9975
RA_OF_ASC_NODE = 219.7366
ARG_OF_PERICENTER = 267.2457
MEAN_ANOMALY   = 40.6156

EPHEMERIS_TYPE = 0
CLASSIFICATION_TYPE = U
NORAD_CAT_ID   = 66500
ELEMENT_SET_NO = 999
REV_AT_EPOCH   = 309
BSTAR          = -.57875575E-2
MEAN_MOTION_DOT = -.1431672E-1
MEAN_MOTION_DDOT = 0

CCSDS_OMM_VERS = 2.0
CREATION_DATE  = 
ORIGINATOR     = 

OBJECT_NAME    = STARLINK-35897
OBJECT_ID      = 2025-263S
CENTER_NAME    = EARTH
REF_FRAME      = TEME
TIME_SYSTEM    = UTC
MEAN_ELEMENT_THEORY = SGP/SGP4

EPOCH          = 2025-11-26T22:00:05.999904
MEAN_MOTION    = 15.88207302
ECCENTRICITY   = .00018064
INCLINATION    = 42.9976
RA_OF_ASC_NODE = 219.7229
ARG_OF_PERICENTER = 269.0802
MEAN_ANOMALY   = 44.1796

EPHEMERIS_TYPE = 0
CLASSIFICATION_TYPE = U
NORAD_CAT_ID   = 66501
ELEMENT_SET_NO = 999
REV_AT_EPOCH   = 309
BSTAR          = -.58644312E-2
MEAN_MOTION_DOT = -.144875E-1
MEAN_MOTION_DDOT = 0

CCSDS_OMM_VERS = 2.0
CREATION_DATE  = 
ORIGINATOR     = 

OBJECT_NAME    = STARLINK-35922
OBJECT_ID      = 2025-263T
CENTER_NAME    = EARTH
REF_FRAME      = TEME
TIME_SYSTEM    = UTC
MEAN_ELEMENT_THEORY = SGP/SGP4

EPOCH          = 2025-11-26T22:00:05.999904
MEAN_MOTION    = 15.88223530
ECCENTRICITY   = .00018481
INCLINATION    = 42.9978
RA_OF_ASC_NODE = 219.7014
ARG_OF_PERICENTER = 267.6344
MEAN_ANOMALY   = 54.1719

EPHEMERIS_TYPE = 0
CLASSIFICATION_TYPE = U
NORAD_CAT_ID   = 66502
ELEMENT_SET_NO = 999
REV_AT_EPOCH   = 309
BSTAR          = -.60176785E-2
MEAN_MOTION_DOT = -.1482454E-1
MEAN_MOTION_DDOT = 0

CCSDS_OMM_VERS = 2.0
CREATION_DATE  = 
ORIGINATOR     = 

OBJECT_NAME    = STARLINK-35917
OBJECT_ID      = 2025-263U
CENTER_NAME    = EARTH
REF_FRAME      = TEME
TIME_SYSTEM    = UTC
MEAN_ELEMENT_THEORY = SGP/SGP4

EPOCH          = 2025-11-26T22:00:05.999904
MEAN_MOTION    = 15.88218652
ECCENTRICITY   = .00018451
INCLINATION    = 42.9975
RA_OF_ASC_NODE = 219.6859
ARG_OF_PERICENTER = 268.4723
MEAN_ANOMALY   = 59.2795

EPHEMERIS_TYPE = 0
CLASSIFICATION_TYPE = U
NORAD_CAT_ID   = 66503
ELEMENT_SET_NO = 999
REV_AT_EPOCH   = 309
BSTAR          = -.6037894E-2
MEAN_MOTION_DOT = -.151757E-1
MEAN_MOTION_DDOT = 0

CCSDS_OMM_VERS = 2.0
CREATION_DATE  = 
ORIGINATOR     = 

OBJECT_NAME    = STARLINK-35916
OBJECT_ID      = 2025-263V
CENTER_NAME    = EARTH
REF_FRAME      = TEME
TIME_SYSTEM    = UTC
MEAN_ELEMENT_THEORY = SGP/SGP4

EPOCH          = 2025-11-26T22:00:05.999904
MEAN_MOTION    = 15.86245329
ECCENTRICITY   = .00015839
INCLINATION    = 42.9978
RA_OF_ASC_NODE = 219.6898
ARG_OF_PERICENTER = 260.2106
MEAN_ANOMALY   = 65.9391

EPHEMERIS_TYPE = 0
CLASSIFICATION_TYPE = U
NORAD_CAT_ID   = 66504
ELEMENT_SET_NO = 999
REV_AT_EPOCH   = 309
BSTAR          = -.10566603E-1
MEAN_MOTION_DOT = -.2364603E-1
MEAN_MOTION_DDOT = 0

CCSDS_OMM_VERS = 2.0
CREATION_DATE  = 
ORIGINATOR     = 

OBJECT_NAME    = STARLINK-34766
OBJECT_ID      = 2025-263W
CENTER_NAME    = EARTH
REF_FRAME      = TEME
TIME_SYSTEM    = UTC
MEAN_ELEMENT_THEORY = SGP/SGP4

EPOCH          = 2025-11-26T22:00:05.999904
MEAN_MOTION    = 15.88202249
ECCENTRICITY   = .00016745
INCLINATION    = 42.9976
RA_OF_ASC_NODE = 219.7145
ARG_OF_PERICENTER = 264.4715
MEAN_ANOMALY   = 52.0922

EPHEMERIS_TYPE = 0
CLASSIFICATION_TYPE = U
NORAD_CAT_ID   = 66505
ELEMENT_SET_NO = 999
REV_AT_EPOCH   = 309
BSTAR          = -.59406986E-2
MEAN_MOTION_DOT = -.1464572E-1
MEAN_MOTION_DDOT = 0

